OBJECT_NAME,OBJECT_ID,EPOCH,MEAN_MOTION,ECCENTRICITY,INCLINATION,RA_OF_ASC_NODE,ARG_OF_PERICENTER,MEAN_ANOMALY,EPHEMERIS_TYPE,CLASSIFICATION_TYPE,NORAD_CAT_ID,ELEMENT_SET_NO,REV_AT_EPOCH,BSTAR,MEAN_MOTION_DOT,MEAN_MOTION_DDOT
DUBAISAT-1,2009-041B,2026-06-04T06:26:59.381376,14.75103282,.00116963,98.0036,288.6695,110.3318,249.9149,0,U,35682,999,90319,.17012455E-3,.1097E-4,0
OCEANSAT-2,2009-051A,2026-06-05T06:16:26.963616,13.99662844,.00145451,98.2322,144.3027,272.7992,87.1510,0,U,35931,999,87766,.15640493E-3,.191E-5,0
WORLDVIEW-2 (WV-2),2009-055A,2026-06-05T06:20:58.787520,14.37895813,.00031812,98.4737,229.8783,252.6110,107.4730,0,U,35946,999,87393,.59723725E-4,.137E-5,0
SMOS,2009-059A,2026-06-05T05:40:12.715392,14.39765885,.00013479,98.4426,343.7463,91.7551,268.3791,0,U,36036,999,87173,.93417215E-4,.249E-5,0
YAOGAN-7,2009-069A,2026-06-04T16:47:36.747168,14.77996983,.0026007,98.0085,41.6431,80.1150,280.2994,0,U,36110,999,88778,.9417E-4,.63E-5,0
TANDEM-X,2010-030A,2026-06-01T10:46:51.497760,15.19149361,.00017833,97.4445,160.3804,80.8335,279.3101,0,U,36605,999,88425,.38591092E-4,.743E-5,0
CARTOSAT-2B,2010-035A,2026-06-05T07:03:55.568160,14.78645452,.00102939,97.9953,206.9190,225.0149,135.0228,0,U,36795,999,85809,.10154457E-3,.692E-5,0
YAOGAN-10,2010-038A,2026-06-05T08:24:45.885312,14.85311565,.00016277,97.8976,179.8493,88.7274,281.9381,0,U,36834,999,85545,.24352483E-3,.2039E-4,0
COSMO-SKYMED 4,2010-060A,2026-06-05T07:00:15.197184,14.82160803,.00014456,97.8885,340.0640,83.3477,276.7900,0,U,37216,999,84280,.94294449E-4,.699E-5,0
RESOURCESAT-2,2011-015A,2026-06-05T04:39:50.829120,14.21603767,.00101793,98.7646,223.7185,294.1319,65.8793,0,U,37387,999,78447,.62380962E-4,.92E-6,0
HAIYANG-2A,2011-043A,2026-06-05T07:38:55.258368,13.74586741,.00063366,99.3393,159.2553,115.3425,244.8381,0,U,37781,999,74502,.27404794E-3,.216E-5,0
RASAT,2011-044D,2026-06-05T07:33:36.331776,14.68155898,.00193959,98.0572,247.8928,227.9655,173.5759,0,U,37791,999,79144,.14874426E-3,.808E-5,0
SRMSAT,2011-058D,2026-06-05T06:30:08.688960,14.11573089,.00119347,19.9703,131.5949,73.4698,332.0288,0,U,37841,999,75613,.60553355E-4,.376E-5,0
PLEIADES 1A,2011-076F,2026-06-05T07:54:05.059008,14.58563664,.00014771,98.1975,231.5905,99.0395,338.2914,0,U,38012,999,77026,.98606051E-4,.413E-5,0
ZIYUAN 1-02C (ZY 1-02C),2011-079A,2026-06-05T07:45:35.514144,14.38204726,.00062648,98.4070,223.8791,355.2485,93.8902,0,U,38038,999,75750,.12534203E-3,.338E-5,0
ARIRANG-3 (KOMPSAT-3),2012-025B,2026-06-05T06:18:09.084096,14.62195204,.00061026,98.1171,113.9289,140.2709,219.8940,0,U,38338,999,74960,.10194044E-3,.467E-5,0
EXACTVIEW-1 (ADS-1B),2012-039C,2026-06-05T02:14:36.233088,14.24980976,.00104995,98.9764,273.2113,201.1276,158.9470,0,U,38709,999,72098,.85083279E-4,.153E-5,0
SPOT 6,2012-047A,2026-06-05T07:54:53.352288,14.58556136,.00013963,98.2119,223.7763,93.5718,266.5641,0,U,38755,999,73132,.10290621E-3,.433E-5,0
PLEIADES 1B,2012-068A,2026-06-05T06:43:18.659712,14.58553393,.00015294,98.1945,231.4951,96.2969,263.8405,0,U,39019,999,71911,.10253872E-3,.431E-5,0
GOKTURK 2,2012-073A,2026-06-05T06:45:02.896128,14.75530314,.0001988,97.6820,354.3092,63.3491,296.7922,0,U,39030,999,72275,.71269126E-4,.438E-5,0
LANDSAT 8,2013-008A,2026-06-05T06:46:19.581312,14.57110489,.00014546,98.2303,226.5583,97.4367,262.6996,0,U,39084,999,69616,.87058952E-4,.347E-5,0
SARAL,2013-009A,2026-06-05T05:44:54.123648,14.32852936,.00013823,98.5557,342.9583,1.4648,358.6540,0,U,39086,999,69389,.44473908E-4,.78E-6,0
GAOFEN-1,2013-018A,2026-06-05T06:30:55.447776,14.76521447,.00160831,97.9094,228.5807,308.5207,51.4561,0,U,39150,999,70648,-.25336493E-4,-.228E-5,0
VNREDSAT 1,2013-021B,2026-06-05T08:09:49.055040,14.64844921,.00016282,97.9082,210.2105,91.4290,268.7100,0,U,39160,999,69855,.15257796E-3,.769E-5,0
ARIRANG-5 (KOMPSAT-5),2013-042A,2026-06-05T07:51:38.396736,15.04545337,.00038553,97.6204,343.1937,153.8979,206.2442,0,U,39227,999,70207,.15594653E-3,.2125E-4,0
SKYSAT-A,2013-066C,2026-06-05T02:06:34.976448,15.12905582,.00211886,97.3816,205.8706,0.6895,359.4362,0,U,39418,999,68665,.20429446E-3,.3551E-4,0
DUBAISAT-2,2013-066D,2026-06-05T06:37:56.176032,15.10087179,.0013161,97.4566,146.7339,76.1925,284.0769,0,U,39419,999,68459,.18740448E-3,.2995E-4,0
GPM-CORE,2014-009C,2026-06-05T05:36:35.008992,15.45398724,.0012031,64.9729,348.1812,269.0592,90.9170,0,U,39574,999,69596,.16464579E-3,.768E-4,0
SENTINEL-1A,2014-016A,2026-06-05T07:10:27.602112,14.59199542,.00014165,98.1777,164.0048,80.7721,279.3639,0,U,39634,999,64828,.62396822E-4,.248E-5,0
KAZEOSAT 1,2014-024A,2026-06-05T07:05:46.261248,14.42075478,.00015083,98.3204,229.0380,76.4080,283.7278,0,U,39731,999,63684,.96577296E-4,.275E-5,0
