DUBAISAT-1              
1 35682U 09041B   26155.26874284  .00001097  00000+0  17012-3 0  9998
2 35682  98.0036 288.6695 0011696 110.3318 249.9149 14.75103282903199
OCEANSAT-2              
1 35931U 09051A   26156.26142319  .00000191  00000+0  15640-3 0  9993
2 35931  98.2322 144.3027 0014545 272.7992  87.1510 13.99662844877665
WORLDVIEW-2 (WV-2)      
1 35946U 09055A   26156.26456930  .00000137  00000+0  59724-4 0  9992
2 35946  98.4737 229.8783 0003181 252.6110 107.4730 14.37895813873937
SMOS                    
1 36036U 09059A   26156.23625828  .00000249  00000+0  93417-4 0  9999
2 36036  98.4426 343.7463 0001347  91.7551 268.3791 14.39765885871734
YAOGAN-7                
1 36110U 09069A   26155.69973087  .00000630  00000+0  94170-4 0  9996
2 36110  98.0085  41.6431 0026007  80.1150 280.2994 14.77996983887787
TANDEM-X                
1 36605U 10030A   26152.44920715  .00000743  00000+0  38591-4 0  9995
2 36605  97.4445 160.3804 0001783  80.8335 279.3101 15.19149361884253
CARTOSAT-2B             
1 36795U 10035A   26156.29439315  .00000692  00000+0  10154-3 0  9995
2 36795  97.9953 206.9190 0010293 225.0149 135.0228 14.78645452858096
YAOGAN-10               
1 36834U 10038A   26156.35053108  .00002039  00000+0  24352-3 0  9993
2 36834  97.8976 179.8493 0001627  88.7274 281.9381 14.85311565855453
COSMO-SKYMED 4          
1 37216U 10060A   26156.29184256  .00000699  00000+0  94294-4 0  9998
2 37216  97.8885 340.0640 0001445  83.3477 276.7900 14.82160803842805
RESOURCESAT-2           
1 37387U 11015A   26156.19433830  .00000092  00000+0  62381-4 0  9991
2 37387  98.7646 223.7185 0010179 294.1319  65.8793 14.21603767784470
HAIYANG-2A              
1 37781U 11043A   26156.31869512  .00000216  00000+0  27405-3 0  9999
2 37781  99.3393 159.2553 0006336 115.3425 244.8381 13.74586741745027
RASAT                   
1 37791U 11044D   26156.31500384  .00000808  00000+0  14874-3 0  9993
2 37791  98.0572 247.8928 0019395 227.9655 173.5759 14.68155898791440
SRMSAT                  
1 37841U 11058D   26156.27093390  .00000376  00000+0  60553-4 0  9999
2 37841  19.9703 131.5949 0011934  73.4698 332.0288 14.11573089756138
PLEIADES 1A             
1 38012U 11076F   26156.32922522  .00000413  00000+0  98606-4 0  9996
2 38012  98.1975 231.5905 0001477  99.0395 338.2914 14.58563664770264
ZIYUAN 1-02C (ZY 1-02C) 
1 38038U 11079A   26156.32332771  .00000338  00000+0  12534-3 0  9999
2 38038  98.4070 223.8791 0006264 355.2485  93.8902 14.38204726757506
ARIRANG-3 (KOMPSAT-3)   
1 38338U 12025B   26156.26260514  .00000467  00000+0  10194-3 0  9995
2 38338  98.1171 113.9289 0006102 140.2709 219.8940 14.62195204749602
EXACTVIEW-1 (ADS-1B)    
1 38709U 12039C   26156.09347492  .00000153  00000+0  85083-4 0  9996
2 38709  98.9764 273.2113 0010499 201.1276 158.9470 14.24980976720983
SPOT 6                  
1 38755U 12047A   26156.32978417  .00000433  00000+0  10291-3 0  9998
2 38755  98.2119 223.7763 0001396  93.5718 266.5641 14.58556136731322
PLEIADES 1B             
1 39019U 12068A   26156.28007708  .00000431  00000+0  10254-3 0  9993
2 39019  98.1945 231.4951 0001529  96.2969 263.8405 14.58553393719116
GOKTURK 2               
1 39030U 12073A   26156.28128352  .00000438  00000+0  71269-4 0  9992
2 39030  97.6820 354.3092 0001988  63.3491 296.7922 14.75530314722750
LANDSAT 8               
1 39084U 13008A   26156.28217108  .00000347  00000+0  87059-4 0  9991
2 39084  98.2303 226.5583 0001454  97.4367 262.6996 14.57110489696160
SARAL                   
1 39086U 13009A   26156.23951532  .00000078  00000+0  44474-4 0  9990
2 39086  98.5557 342.9583 0001382   1.4648 358.6540 14.32852936693897
GAOFEN-1                
1 39150U 13018A   26156.27147509 -.00000228  00000+0 -25336-4 0  9992
2 39150  97.9094 228.5807 0016083 308.5207  51.4561 14.76521447706481
VNREDSAT 1              
1 39160U 13021B   26156.34015110  .00000769  00000+0  15258-3 0  9996
2 39160  97.9082 210.2105 0001628  91.4290 268.7100 14.64844921698559
ARIRANG-5 (KOMPSAT-5)   
1 39227U 13042A   26156.32752774  .00002125  00000+0  15595-3 0  9997
2 39227  97.6204 343.1937 0003855 153.8979 206.2442 15.04545337702079
SKYSAT-A                
1 39418U 13066C   26156.08790482  .00003551  00000+0  20429-3 0  9992
2 39418  97.3816 205.8706 0021188   0.6895 359.4362 15.12905582686658
DUBAISAT-2              
1 39419U 13066D   26156.27634463  .00002995  00000+0  18740-3 0  9994
2 39419  97.4566 146.7339 0013161  76.1925 284.0769 15.10087179684597
GPM-CORE                
1 39574U 14009C   26156.23373853  .00007680  00000+0  16465-3 0  9991
2 39574  64.9729 348.1812 0012031 269.0592  90.9170 15.45398724695963
SENTINEL-1A             
1 39634U 14016A   26156.29893058  .00000248  00000+0  62397-4 0  9995
2 39634  98.1777 164.0048 0001416  80.7721 279.3639 14.59199542648282
KAZEOSAT 1              
1 39731U 14024A   26156.29567432  .00000275  00000+0  96577-4 0  9993
2 39731  98.3204 229.0380 0001508  76.4080 283.7278 14.42075478636840
